{"type": "FeatureCollection", "features": [ {"type": "Feature", "properties": {"norad_id": 44476, "name": "INTELSAT 39 (IS-39)", "group": "intelsat", "lat": -0.02540169263745342, "lon": -148.86320274817027, "alt_km": 35785.722540962495, "timestamp": "2025-12-21T03:56:50.522323+00:00", "meta": {"OBJECT_NAME": "INTELSAT 39 (IS-39)", "OBJECT_ID": "2019-049B", "EPOCH": "2025-12-20T20:40:48.275040", "MEAN_MOTION": 1.00269667, "ECCENTRICITY": 0.0001038, "INCLINATION": 0.0243, "RA_OF_ASC_NODE": 2.9456, "ARG_OF_PERICENTER": 130.8681, "MEAN_ANOMALY": 328.0147, "EPHEMERIS_TYPE": 0, "CLASSIFICATION_TYPE": "U", "NORAD_CAT_ID": 44476, "ELEMENT_SET_NO": 999, "REV_AT_EPOCH": 2334, "BSTAR": 0, "MEAN_MOTION_DOT": 0, "MEAN_MOTION_DDOT": 0}, "tle": {"line1": "1 44476U 19049B   25354.86166985  .00000000  00000+0  00000+0 0  9994", "line2": "2 44476   0.0243   2.9456 0001038 130.8681 328.0147  1.00269667 23345"}}, "geometry": {"type": "Point", "coordinates": [-148.86320274817027, -0.02540169263745342]}}, {"type": "Feature", "properties": {"norad_id": 46114, "name": "GALAXY 30 (G-30)", "group": "intelsat", "lat": 0.02459916967284271, "lon": 24.232639342784438, "alt_km": 35789.05045253506, "timestamp": "2025-12-21T03:56:50.522333+00:00", "meta": {"OBJECT_NAME": "GALAXY 30 (G-30)", "OBJECT_ID": "2020-056C", "EPOCH": "2025-12-20T16:03:37.347264", "MEAN_MOTION": 1.0027331, "ECCENTRICITY": 0.0002034, "INCLINATION": 0.0182, "RA_OF_ASC_NODE": 345.3857, "ARG_OF_PERICENTER": 285.3913, "MEAN_ANOMALY": 294.6471, "EPHEMERIS_TYPE": 0, "CLASSIFICATION_TYPE": "U", "NORAD_CAT_ID": 46114, "ELEMENT_SET_NO": 999, "REV_AT_EPOCH": 1950, "BSTAR": 0, "MEAN_MOTION_DOT": 6e-07, "MEAN_MOTION_DDOT": 0}, "tle": {"line1": "1 46114U 20056C   25354.66918226  .00000060  00000+0  00000+0 0  9992", "line2": "2 46114   0.0182 345.3857 0002034 285.3913 294.6471  1.00273310 19509"}}, "geometry": {"type": "Point", "coordinates": [24.232639342784438, 0.02459916967284271]}}, {"type": "Feature", "properties": {"norad_id": 54026, "name": "GALAXY 33 (G-33)", "group": "intelsat", "lat": -0.0057210711765000345, "lon": 16.207726669885552, "alt_km": 35788.07182689335, "timestamp": "2025-12-21T03:56:50.522344+00:00", "meta": {"OBJECT_NAME": "GALAXY 33 (G-33)", "OBJECT_ID": "2022-128A", "EPOCH": "2025-12-20T17:44:03.645312", "MEAN_MOTION": 1.00271333, "ECCENTRICITY": 0.000155, "INCLINATION": 0.0167, "RA_OF_ASC_NODE": 44.0159, "ARG_OF_PERICENTER": 225.3715, "MEAN_ANOMALY": 313.1978, "EPHEMERIS_TYPE": 0, "CLASSIFICATION_TYPE": "U", "NORAD_CAT_ID": 54026, "ELEMENT_SET_NO": 999, "REV_AT_EPOCH": 1195, "BSTAR": 0, "MEAN_MOTION_DOT": 1.02e-06, "MEAN_MOTION_DDOT": 0}, "tle": {"line1": "1 54026U 22128A   25354.73893108  .00000102  00000+0  00000+0 0  9991", "line2": "2 54026   0.0167  44.0159 0001550 225.3715 313.1978  1.00271333 11950"}}, "geometry": {"type": "Point", "coordinates": [16.207726669885552, -0.0057210711765000345]}}, {"type": "Feature", "properties": {"norad_id": 54027, "name": "GALAXY 34 (G-34)", "group": "intelsat", "lat": 0.011008845489923192, "lon": 20.256076870017797, "alt_km": 35790.598185682524, "timestamp": "2025-12-21T03:56:50.522354+00:00", "meta": {"OBJECT_NAME": "GALAXY 34 (G-34)", "OBJECT_ID": "2022-128B", "EPOCH": "2025-12-20T16:02:29.955264", "MEAN_MOTION": 1.0026794, "ECCENTRICITY": 0.0001742, "INCLINATION": 0.0233, "RA_OF_ASC_NODE": 12.1424, "ARG_OF_PERICENTER": 249.9166, "MEAN_ANOMALY": 299.1202, "EPHEMERIS_TYPE": 0, "CLASSIFICATION_TYPE": "U", "NORAD_CAT_ID": 54027, "ELEMENT_SET_NO": 999, "REV_AT_EPOCH": 1212, "BSTAR": 0, "MEAN_MOTION_DOT": 0, "MEAN_MOTION_DDOT": 0}, "tle": {"line1": "1 54027U 22128B   25354.66840226  .00000000  00000+0  00000+0 0  9994", "line2": "2 54027   0.0233  12.1424 0001742 249.9166 299.1202  1.00267940 12123"}}, "geometry": {"type": "Point", "coordinates": [20.256076870017797, 0.011008845489923192]}}, {"type": "Feature", "properties": {"norad_id": 54243, "name": "GALAXY 31 (G-31)", "group": "intelsat", "lat": -0.0040553845002613345, "lon": 28.204451464729527, "alt_km": 35788.1936077544, "timestamp": "2025-12-21T03:56:50.522365+00:00", "meta": {"OBJECT_NAME": "GALAXY 31 (G-31)", "OBJECT_ID": "2022-153A", "EPOCH": "2025-12-20T16:04:44.740128", "MEAN_MOTION": 1.0027114, "ECCENTRICITY": 0.0001373, "INCLINATION": 0.0199, "RA_OF_ASC_NODE": 83.2209, "ARG_OF_PERICENTER": 195.4241, "MEAN_ANOMALY": 291.0428, "EPHEMERIS_TYPE": 0, "CLASSIFICATION_TYPE": "U", "NORAD_CAT_ID": 54243, "ELEMENT_SET_NO": 999, "REV_AT_EPOCH": 534, "BSTAR": 0, "MEAN_MOTION_DOT": 3.7e-07, "MEAN_MOTION_DDOT": 0}, "tle": {"line1": "1 54243U 22153A   25354.66996227  .00000037  00000+0  00000+0 0  9995", "line2": "2 54243   0.0199  83.2209 0001373 195.4241 291.0428  1.00271140  5347"}}, "geometry": {"type": "Point", "coordinates": [28.204451464729527, -0.0040553845002613345]}}, {"type": "Feature", "properties": {"norad_id": 54244, "name": "GALAXY 32 (G-32)", "group": "intelsat", "lat": 0.028055965267107012, "lon": 58.2155734293305, "alt_km": 35787.637039080284, "timestamp": "2025-12-21T03:56:50.522375+00:00", "meta": {"OBJECT_NAME": "GALAXY 32 (G-32)", "OBJECT_ID": "2022-153B", "EPOCH": "2025-12-20T11:05:05.936928", "MEAN_MOTION": 1.00271078, "ECCENTRICITY": 0.0001946, "INCLINATION": 0.012, "RA_OF_ASC_NODE": 19.5385, "ARG_OF_PERICENTER": 299.6546, "MEAN_ANOMALY": 205.3828, "EPHEMERIS_TYPE": 0, "CLASSIFICATION_TYPE": "U", "NORAD_CAT_ID": 54244, "ELEMENT_SET_NO": 999, "REV_AT_EPOCH": 1135, "BSTAR": 0, "MEAN_MOTION_DOT": -1.51e-06, "MEAN_MOTION_DDOT": 0}, "tle": {"line1": "1 54244U 22153B   25354.46187427 -.00000151  00000+0  00000+0 0  9996", "line2": "2 54244   0.0120  19.5385 0001946 299.6546 205.3828  1.00271078 11350"}}, "geometry": {"type": "Point", "coordinates": [58.2155734293305, 0.028055965267107012]}}, {"type": "Feature", "properties": {"norad_id": 54741, "name": "GALAXY 35 (G-35)", "group": "intelsat", "lat": 0.01474413042054366, "lon": 56.11180455225394, "alt_km": 35793.32261470606, "timestamp": "2025-12-21T03:56:50.522385+00:00", "meta": {"OBJECT_NAME": "GALAXY 35 (G-35)", "OBJECT_ID": "2022-170A", "EPOCH": "2025-12-20T14:29:53.824416", "MEAN_MOTION": 1.00272181, "ECCENTRICITY": 0.0002149, "INCLINATION": 0.0141, "RA_OF_ASC_NODE": 52.9808, "ARG_OF_PERICENTER": 219.5945, "MEAN_ANOMALY": 301.2412, "EPHEMERIS_TYPE": 0, "CLASSIFICATION_TYPE": "U", "NORAD_CAT_ID": 54741, "ELEMENT_SET_NO": 999, "REV_AT_EPOCH": 1110, "BSTAR": 0, "MEAN_MOTION_DOT": -1.39e-06, "MEAN_MOTION_DDOT": 0}, "tle": {"line1": "1 54741U 22170A   25354.60409519 -.00000139  00000+0  00000+0 0  9998", "line2": "2 54741   0.0141  52.9808 0002149 219.5945 301.2412  1.00272181 11100"}}, "geometry": {"type": "Point", "coordinates": [56.11180455225394, 0.01474413042054366]}}, {"type": "Feature", "properties": {"norad_id": 54742, "name": "GALAXY 36 (G-36)", "group": "intelsat", "lat": 0.03043323305606542, "lon": 60.185130260736976, "alt_km": 35786.16954679857, "timestamp": "2025-12-21T03:56:50.522396+00:00", "meta": {"OBJECT_NAME": "GALAXY 36 (G-36)", "OBJECT_ID": "2022-170B", "EPOCH": "2025-12-20T14:31:08.702976", "MEAN_MOTION": 1.00269422, "ECCENTRICITY": 4.02e-05, "INCLINATION": 0.0148, "RA_OF_ASC_NODE": 20.4593, "ARG_OF_PERICENTER": 330.7869, "MEAN_ANOMALY": 226.9725, "EPHEMERIS_TYPE": 0, "CLASSIFICATION_TYPE": "U", "NORAD_CAT_ID": 54742, "ELEMENT_SET_NO": 999, "REV_AT_EPOCH": 1098, "BSTAR": 0, "MEAN_MOTION_DOT": 0, "MEAN_MOTION_DDOT": 0}, "tle": {"line1": "1 54742U 22170B   25354.60496184  .00000000  00000+0  00000+0 0  9999", "line2": "2 54742   0.0148  20.4593 0000402 330.7869 226.9725  1.00269422 10989"}}, "geometry": {"type": "Point", "coordinates": [60.185130260736976, 0.03043323305606542]}}, {"type": "Feature", "properties": {"norad_id": 57493, "name": "GALAXY 37 (G-37)", "group": "intelsat", "lat": 0.01468826907800236, "lon": 22.204613592628075, "alt_km": 35789.10085510229, "timestamp": "2025-12-21T03:56:50.522406+00:00", "meta": {"OBJECT_NAME": "GALAXY 37 (G-37)", "OBJECT_ID": "2023-112A", "EPOCH": "2025-12-20T16:02:59.905824", "MEAN_MOTION": 1.00270939, "ECCENTRICITY": 0.0001926, "INCLINATION": 0.0145, "RA_OF_ASC_NODE": 3.2733, "ARG_OF_PERICENTER": 268.7416, "MEAN_ANOMALY": 291.2295, "EPHEMERIS_TYPE": 0, "CLASSIFICATION_TYPE": "U", "NORAD_CAT_ID": 57493, "ELEMENT_SET_NO": 999, "REV_AT_EPOCH": 875, "BSTAR": 0, "MEAN_MOTION_DOT": 7.2e-07, "MEAN_MOTION_DDOT": 0}, "tle": {"line1": "1 57493U 23112A   25354.66874891  .00000072  00000+0  00000+0 0  9992", "line2": "2 57493   0.0145   3.2733 0001926 268.7416 291.2295  1.00270939  8751"}}, "geometry": {"type": "Point", "coordinates": [22.204613592628075, 0.01468826907800236]}}]}